[{"OBJECT_NAME":"KONDOR-FKA NO. 2","OBJECT_ID":"2024-223A","EPOCH":"2026-03-09T11:47:52.628640","MEAN_MOTION":15.1977694,"ECCENTRICITY":0.00018388,"INCLINATION":97.4353,"RA_OF_ASC_NODE":273.3867,"ARG_OF_PERICENTER":85.6363,"MEAN_ANOMALY":274.5082,"EPHEMERIS_TYPE":0,"CLASSIFICATION_TYPE":"U","NORAD_CAT_ID":62138,"ELEMENT_SET_NO":999,"REV_AT_EPOCH":7056,"BSTAR":0.00026619271,"MEAN_MOTION_DOT":5.629e-5,"MEAN_MOTION_DDOT":0},{"OBJECT_NAME":"CO3D 2","OBJECT_ID":"2025-156D","EPOCH":"2026-03-09T21:26:54.125664","MEAN_MOTION":15.20209232,"ECCENTRICITY":0.00014107,"INCLINATION":97.4323,"RA_OF_ASC_NODE":148.9107,"ARG_OF_PERICENTER":117.4238,"MEAN_ANOMALY":242.7141,"EPHEMERIS_TYPE":0,"CLASSIFICATION_TYPE":"U","NORAD_CAT_ID":64902,"ELEMENT_SET_NO":999,"REV_AT_EPOCH":3444,"BSTAR":0.00024862852,"MEAN_MOTION_DOT":5.32e-5,"MEAN_MOTION_DDOT":0}]
